{"type": "FeatureCollection", "features": [ {"type": "Feature", "properties": {"norad_id": 66660, "name": "K-HERO", "group": "last-30-days", "lat": -62.126632486679846, "lon": 77.05948378933155, "alt_km": 589.6904651756104, "timestamp": "2025-12-10T16:57:10.417202+00:00", "meta": {"OBJECT_NAME": "K-HERO", "OBJECT_ID": "2025-274L", "EPOCH": "2025-12-10T06:12:53.438112", "MEAN_MOTION": 14.92937795, "ECCENTRICITY": 0.001285, "INCLINATION": 97.7388, "RA_OF_ASC_NODE": 271.519, "ARG_OF_PERICENTER": 290.1663, "MEAN_ANOMALY": 69.8174, "EPHEMERIS_TYPE": 0, "CLASSIFICATION_TYPE": "U", "NORAD_CAT_ID": 66660, "ELEMENT_SET_NO": 999, "REV_AT_EPOCH": 203, "BSTAR": 0.00046639, "MEAN_MOTION_DOT": 4.792e-05, "MEAN_MOTION_DDOT": 0}, "tle": {"line1": "1 66660U 25274L   25344.25895183  .00004792  00000+0  46639-3 0  9995", "line2": "2 66660  97.7388 271.5190 0012850 290.1663  69.8174 14.92937795  2032"}}, "geometry": {"type": "Point", "coordinates": [77.05948378933155, -62.126632486679846]}}, {"type": "Feature", "properties": {"norad_id": 66661, "name": "SNUGLITE-III", "group": "last-30-days", "lat": -69.26599173374083, "lon": 70.90895344704063, "alt_km": 588.315543846762, "timestamp": "2025-12-10T16:57:10.417212+00:00", "meta": {"OBJECT_NAME": "SNUGLITE-III", "OBJECT_ID": "2025-274M", "EPOCH": "2025-12-10T07:47:25.371744", "MEAN_MOTION": 14.93077271, "ECCENTRICITY": 0.0013516, "INCLINATION": 97.7387, "RA_OF_ASC_NODE": 271.5864, "ARG_OF_PERICENTER": 291.0981, "MEAN_ANOMALY": 68.8793, "EPHEMERIS_TYPE": 0, "CLASSIFICATION_TYPE": "U", "NORAD_CAT_ID": 66661, "ELEMENT_SET_NO": 999, "REV_AT_EPOCH": 204, "BSTAR": 0.00033423, "MEAN_MOTION_DOT": 3.43e-05, "MEAN_MOTION_DDOT": 0}, "tle": {"line1": "1 66661U 25274M   25344.32459921  .00003430  00000+0  33423-3 0  9995", "line2": "2 66661  97.7387 271.5864 0013516 291.0981  68.8793 14.93077271  2045"}}, "geometry": {"type": "Point", "coordinates": [70.90895344704063, -69.26599173374083]}}, {"type": "Feature", "properties": {"norad_id": 66662, "name": "2025-274N", "group": "last-30-days", "lat": -71.99548707008856, "lon": 67.22926832239004, "alt_km": 587.6000340465444, "timestamp": "2025-12-10T16:57:10.417222+00:00", "meta": {"OBJECT_NAME": "2025-274N", "OBJECT_ID": "2025-274N", "EPOCH": "2025-12-10T06:10:08.186016", "MEAN_MOTION": 14.9312662, "ECCENTRICITY": 0.0013971, "INCLINATION": 97.7386, "RA_OF_ASC_NODE": 271.5211, "ARG_OF_PERICENTER": 291.0451, "MEAN_ANOMALY": 68.9274, "EPHEMERIS_TYPE": 0, "CLASSIFICATION_TYPE": "U", "NORAD_CAT_ID": 66662, "ELEMENT_SET_NO": 999, "REV_AT_EPOCH": 203, "BSTAR": 0.00036205, "MEAN_MOTION_DOT": 3.726e-05, "MEAN_MOTION_DDOT": 0}, "tle": {"line1": "1 66662U 25274N   25344.25703919  .00003726  00000+0  36205-3 0  9996", "line2": "2 66662  97.7386 271.5211 0013971 291.0451  68.9274 14.93126620  2035"}}, "geometry": {"type": "Point", "coordinates": [67.22926832239004, -71.99548707008856]}}, {"type": "Feature", "properties": {"norad_id": 66663, "name": "KSLV-II R/B", "group": "last-30-days", "lat": 71.89667249527227, "lon": 116.6558447579892, "alt_km": 594.7911411920741, "timestamp": "2025-12-10T16:57:10.417232+00:00", "meta": {"OBJECT_NAME": "KSLV-II R/B", "OBJECT_ID": "2025-274P", "EPOCH": "2025-12-10T08:27:36.540000", "MEAN_MOTION": 14.97256115, "ECCENTRICITY": 0.0049932, "INCLINATION": 97.741, "RA_OF_ASC_NODE": 271.7172, "ARG_OF_PERICENTER": 328.0407, "MEAN_ANOMALY": 31.7788, "EPHEMERIS_TYPE": 0, "CLASSIFICATION_TYPE": "U", "NORAD_CAT_ID": 66663, "ELEMENT_SET_NO": 999, "REV_AT_EPOCH": 205, "BSTAR": 0.00047864, "MEAN_MOTION_DOT": 5.626e-05, "MEAN_MOTION_DDOT": 0}, "tle": {"line1": "1 66663U 25274P   25344.35250625  .00005626  00000+0  47864-3 0  9993", "line2": "2 66663  97.7410 271.7172 0049932 328.0407  31.7788 14.97256115  2057"}}, "geometry": {"type": "Point", "coordinates": [116.6558447579892, 71.89667249527227]}}, {"type": "Feature", "properties": {"norad_id": 66664, "name": "SOYUZ-MS 28", "group": "last-30-days", "lat": -14.669299453297654, "lon": -15.483937824497628, "alt_km": 418.71143220092836, "timestamp": "2025-12-10T16:57:10.417242+00:00", "meta": {"OBJECT_NAME": "SOYUZ-MS 28", "OBJECT_ID": "2025-275A", "EPOCH": "2025-12-10T03:42:55.481184", "MEAN_MOTION": 15.4946563, "ECCENTRICITY": 0.0003395, "INCLINATION": 51.6306, "RA_OF_ASC_NODE": 155.2782, "ARG_OF_PERICENTER": 228.7831, "MEAN_ANOMALY": 131.2865, "EPHEMERIS_TYPE": 0, "CLASSIFICATION_TYPE": "U", "NORAD_CAT_ID": 66664, "ELEMENT_SET_NO": 999, "REV_AT_EPOCH": 204, "BSTAR": 0.0002721, "MEAN_MOTION_DOT": 0.00014816, "MEAN_MOTION_DDOT": 0}, "tle": {"line1": "1 66664U 25275A   25344.15480881  .00014816  00000+0  27210-3 0  9996", "line2": "2 66664  51.6306 155.2782 0003395 228.7831 131.2865 15.49465630  2047"}}, "geometry": {"type": "Point", "coordinates": [-15.483937824497628, -14.669299453297654]}}, {"type": "Feature", "properties": {"norad_id": 66820, "name": "KOMPSAT-7", "group": "last-30-days", "lat": 0.1590544141008262, "lon": 110.63437970148976, "alt_km": 570.5100128388622, "timestamp": "2025-12-10T16:57:10.417257+00:00", "meta": {"OBJECT_NAME": "KOMPSAT-7", "OBJECT_ID": "2025-279A", "EPOCH": "2025-12-10T06:32:10.558752", "MEAN_MOTION": 14.98382112, "ECCENTRICITY": 0.00094458, "INCLINATION": 97.6405, "RA_OF_ASC_NODE": 290.188, "ARG_OF_PERICENTER": 229.0504, "MEAN_ANOMALY": 130.9902, "EPHEMERIS_TYPE": 0, "CLASSIFICATION_TYPE": "U", "NORAD_CAT_ID": 66820, "ELEMENT_SET_NO": 999, "REV_AT_EPOCH": 128, "BSTAR": 0.00033772709, "MEAN_MOTION_DOT": 3.973e-05, "MEAN_MOTION_DDOT": 0}, "tle": {"line1": "1 66820U 25279A   25344.27234443  .00003973  00000+0  33773-3 0  9991", "line2": "2 66820  97.6405 290.1880 0009445 229.0504 130.9902 14.98382112  1281"}}, "geometry": {"type": "Point", "coordinates": [110.63437970148976, 0.1590544141008262]}}, {"type": "Feature", "properties": {"norad_id": 66877, "name": "ZQ-3 R/B", "group": "last-30-days", "lat": 56.80779788976981, "lon": 149.78649583464303, "alt_km": 1040.8553285744983, "timestamp": "2025-12-10T16:57:10.417271+00:00", "meta": {"OBJECT_NAME": "ZQ-3 R/B", "OBJECT_ID": "2025-282A", "EPOCH": "2025-12-10T11:32:31.043040", "MEAN_MOTION": 14.5297396, "ECCENTRICITY": 0.0806176, "INCLINATION": 56.9526, "RA_OF_ASC_NODE": 66.2848, "ARG_OF_PERICENTER": 216.0467, "MEAN_ANOMALY": 138.3546, "EPHEMERIS_TYPE": 0, "CLASSIFICATION_TYPE": "U", "NORAD_CAT_ID": 66877, "ELEMENT_SET_NO": 999, "REV_AT_EPOCH": 106, "BSTAR": 0.00026017, "MEAN_MOTION_DOT": 0.01253027, "MEAN_MOTION_DDOT": 7.3698e-06}, "tle": {"line1": "1 66877U 25282A   25344.48091485  .01253027  73698-5  26017-3 0  9997", "line2": "2 66877  56.9526  66.2848 0806176 216.0467 138.3546 14.52973960  1060"}}, "geometry": {"type": "Point", "coordinates": [149.78649583464303, 56.80779788976981]}}, {"type": "Feature", "properties": {"norad_id": 66906, "name": "1998-067XS", "group": "last-30-days", "lat": -31.13522987023168, "lon": 1.094584566629097, "alt_km": 416.95143341260336, "timestamp": "2025-12-10T16:57:10.417281+00:00", "meta": {"OBJECT_NAME": "1998-067XS", "OBJECT_ID": "1998-067XS", "EPOCH": "2025-12-10T00:31:58.659744", "MEAN_MOTION": 15.50350034, "ECCENTRICITY": 0.0003912, "INCLINATION": 51.6303, "RA_OF_ASC_NODE": 155.8936, "ARG_OF_PERICENTER": 190.7132, "MEAN_ANOMALY": 169.3774, "EPHEMERIS_TYPE": 0, "CLASSIFICATION_TYPE": "U", "NORAD_CAT_ID": 66906, "ELEMENT_SET_NO": 999, "REV_AT_EPOCH": 119, "BSTAR": 0.00063423893, "MEAN_MOTION_DOT": 0.00036365, "MEAN_MOTION_DDOT": 0}, "tle": {"line1": "1 66906U 98067XS  25344.02220671  .00036365  00000+0  63424-3 0  9999", "line2": "2 66906  51.6303 155.8936 0003912 190.7132 169.3774 15.50350034  1196"}}, "geometry": {"type": "Point", "coordinates": [1.094584566629097, -31.13522987023168]}}, {"type": "Feature", "properties": {"norad_id": 66907, "name": "1998-067XT", "group": "last-30-days", "lat": -37.374596913976724, "lon": 9.72219987785389, "alt_km": 414.6530814249354, "timestamp": "2025-12-10T16:57:10.417293+00:00", "meta": {"OBJECT_NAME": "1998-067XT", "OBJECT_ID": "1998-067XT", "EPOCH": "2025-12-09T12:07:37.114752", "MEAN_MOTION": 15.50864429, "ECCENTRICITY": 0.00048036, "INCLINATION": 51.6307, "RA_OF_ASC_NODE": 158.4423, "ARG_OF_PERICENTER": 208.5081, "MEAN_ANOMALY": 151.5646, "EPHEMERIS_TYPE": 0, "CLASSIFICATION_TYPE": "U", "NORAD_CAT_ID": 66907, "ELEMENT_SET_NO": 999, "REV_AT_EPOCH": 111, "BSTAR": 0.0012921241, "MEAN_MOTION_DOT": 0.00076342, "MEAN_MOTION_DDOT": 0}, "tle": {"line1": "1 66907U 98067XT  25343.50529068  .00076342  00000+0  12921-2 0  9998", "line2": "2 66907  51.6307 158.4423 0004803 208.5081 151.5646 15.50864429  1113"}}, "geometry": {"type": "Point", "coordinates": [9.72219987785389, -37.374596913976724]}}, {"type": "Feature", "properties": {"norad_id": 66908, "name": "1998-067XU", "group": "last-30-days", "lat": -38.227082077518475, "lon": 11.093400363391156, "alt_km": 414.48397444536386, "timestamp": "2025-12-10T16:57:10.417302+00:00", "meta": {"OBJECT_NAME": "1998-067XU", "OBJECT_ID": "1998-067XU", "EPOCH": "2025-12-10T11:19:03.672192", "MEAN_MOTION": 15.51078724, "ECCENTRICITY": 0.0004812, "INCLINATION": 51.6304, "RA_OF_ASC_NODE": 153.6446, "ARG_OF_PERICENTER": 212.6459, "MEAN_ANOMALY": 147.4233, "EPHEMERIS_TYPE": 0, "CLASSIFICATION_TYPE": "U", "NORAD_CAT_ID": 66908, "ELEMENT_SET_NO": 999, "REV_AT_EPOCH": 126, "BSTAR": 0.001489, "MEAN_MOTION_DOT": 0.00088864, "MEAN_MOTION_DDOT": 0}, "tle": {"line1": "1 66908U 98067XU  25344.47157028  .00088864  00000+0  14890-2 0  9998", "line2": "2 66908  51.6304 153.6446 0004812 212.6459 147.4233 15.51078724  1266"}}, "geometry": {"type": "Point", "coordinates": [11.093400363391156, -38.227082077518475]}}]}